NORAD_CAT_ID,OBJECT_NAME,OBJECT_TYPE,EPOCH,MEAN_MOTION,ECCENTRICITY,INCLINATION,RA_OF_ASC_NODE,ARG_OF_PERICENTER,MEAN_ANOMALY,BSTAR,MEAN_MOTION_DOT,MEAN_MOTION_DDOT,TLE_LINE0,TLE_LINE1,TLE_LINE2,SEMIMAJOR_AXIS,PERIOD,APOGEE,PERIGEE,DECAYED
53411.0,STARLINK-4497,PAYLOAD,2023-11-22 06:00:13,15.08846715,0.0001406,53.2178,278.022,84.0345,276.0807,5.8383e-05,6.42e-06,0.0,0 STARLINK-4497,1 53411U 22097Z   23326.25015751  .00000642  00000-0  58383-4 0  9999,2 53411  53.2178 278.0220 0001406  84.0345 276.0807 15.08846715 71584,6917.86,95.437,540.698,538.752,0.0
53411.0,STARLINK-4497,PAYLOAD,2023-11-23 04:15:37,15.08848718,0.0001802,53.2182,273.8579,82.9519,277.1678,0.00028199,4.204e-05,0.0,0 STARLINK-4497,1 53411U 22097Z   23327.17751751  .00004204  00000-0  28199-3 0  9997,2 53411  53.2182 273.8579 0001802  82.9519 277.1678 15.08848718 72213,6917.854,95.437,540.965,538.472,0.0
53411.0,STARLINK-4497,PAYLOAD,2023-11-24 02:31:02,15.0883458,0.0001718,53.2181,269.6936,74.59,285.5282,-5.7546e-05,-1.204e-05,0.0,0 STARLINK-4497,1 53411U 22097Z   23328.10488737 -.00001204  00000-0 -57546-4 0  9990,2 53411  53.2181 269.6936 0001718  74.5900 285.5282 15.08834580 71865,6917.897,95.438,540.95,538.573,0.0
53411.0,STARLINK-4497,PAYLOAD,2023-11-24 04:06:25,15.08836532,0.0001793,53.2187,269.3961,71.6187,288.5,-2.38e-05,-6.67e-06,0.0,0 STARLINK-4497,1 53411U 22097Z   23328.17112720 -.00000667  00000-0 -23800-4 0  9991,2 53411  53.2187 269.3961 0001793  71.6187 288.5000 15.08836532 72360,6917.891,95.438,540.996,538.516,0.0
53411.0,STARLINK-4497,PAYLOAD,2023-11-24 20:00:17,15.08835629,0.0001571,53.2178,266.4294,85.2433,274.8738,2.2204e-05,6.5e-07,0.0,0 STARLINK-4497,1 53411U 22097Z   23328.83353061  .00000065  00000-0  22204-4 0  9996,2 53411  53.2178 266.4294 0001571  85.2433 274.8738 15.08835629 72469,6917.894,95.438,540.846,538.672,0.0
53411.0,STARLINK-4497,PAYLOAD,2023-11-25 02:21:49,15.08844839,0.0001572,53.2182,265.2377,107.6572,252.4592,6.0534e-05,6.76e-06,0.0,0 STARLINK-4497,1 53411U 22097Z   23329.09848552  .00000676  00000-0  60534-4 0  9995,2 53411  53.2182 265.2377 0001572 107.6572 252.4592 15.08844839 72011,6917.866,95.437,540.818,538.643,0.0
53411.0,STARLINK-4497,PAYLOAD,2023-11-25 05:32:34,15.08858849,0.0001378,53.2186,264.6426,103.3791,256.7355,0.00027652,4.118e-05,0.0,0 STARLINK-4497,1 53411U 22097Z   23329.23095887  .00004118  00000-0  27652-3 0  9994,2 53411  53.2186 264.6426 0001378 103.3791 256.7355 15.08858849 72529,6917.823,95.436,540.641,538.734,0.0
53411.0,STARLINK-4497,PAYLOAD,2023-11-26 02:12:35,15.08867509,0.0001567,53.218,260.7822,104.1678,255.9488,0.0005106,7.854e-05,0.0,0 STARLINK-4497,1 53411U 22097Z   23330.09207337  .00007854  00000-0  51060-3 0  9995,2 53411  53.2180 260.7822 0001567 104.1678 255.9488 15.08867509 72658,6917.796,95.436,540.745,538.577,0.0
53411.0,STARLINK-4497,PAYLOAD,2023-11-27 00:28:01,15.08819292,0.0001645,53.2182,256.6169,112.3108,247.8058,-0.00028438,-4.809e-05,0.0,0 STARLINK-4497,1 53411U 22097Z   23331.01945799 -.00004809  00000-0 -28438-3 0  9991,2 53411  53.2182 256.6169 0001645 112.3108 247.8058 15.08819292 72305,6917.944,95.439,540.947,538.671,0.0
53411.0,STARLINK-4497,PAYLOAD,2023-11-27 19:32:37,15.08843591,0.0001448,53.2175,253.0473,94.7399,265.3759,-0.00026003,-4.424e-05,0.0,0 STARLINK-4497,1 53411U 22097Z   23331.81432855 -.00004424  00000-0 -26003-3 0  9992,2 53411  53.2175 253.0473 0001448  94.7399 265.3759 15.08843591 72427,6917.869,95.437,540.736,538.733,0.0
53411.0,STARLINK-4497,PAYLOAD,2023-11-28 00:18:46,15.08861989,0.0001744,53.2175,252.1533,116.3554,243.7617,5.4898e-05,5.86e-06,0.0,0 STARLINK-4497,1 53411U 22097Z   23332.01303972  .00000586  00000-0  54898-4 0  9999,2 53411  53.2175 252.1533 0001744 116.3554 243.7617 15.08861989 72454,6917.813,95.436,540.885,538.472,0.0
53411.0,STARLINK-4497,PAYLOAD,2023-11-28 22:34:11,15.08840799,0.0001671,53.2165,247.9823,124.9106,235.2043,0.00020622,2.996e-05,0.0,0 STARLINK-4497,1 53411U 22097Z   23332.94041096  .00002996  00000-0  20622-3 0  9991,2 53411  53.2165 247.9823 0001671 124.9106 235.2043 15.08840799 73089,6917.878,95.438,540.899,538.587,0.0
53411.0,STARLINK-4497,PAYLOAD,2023-11-29 03:20:20,15.08843156,0.000145,53.2163,247.0909,115.6712,244.443,0.00021928,3.204e-05,0.0,0 STARLINK-4497,1 53411U 22097Z   23333.13913038  .00003204  00000-0  21928-3 0  9990,2 53411  53.2163 247.0909 0001450 115.6712 244.4430 15.08843156 72629,6917.871,95.437,540.739,538.733,0.0
53411.0,STARLINK-4497,PAYLOAD,2023-12-01 03:01:55,15.08842926,0.0001471,53.2174,238.1736,94.6332,265.4828,0.00016442,2.33e-05,0.0,0 STARLINK-4497,1 53411U 22097Z   23335.12633512  .00002330  00000-0  16442-3 0  9991,2 53411  53.2174 238.1736 0001471  94.6332 265.4828 15.08842926 72928,6917.871,95.437,540.754,538.719,0.0
53411.0,STARLINK-4497,PAYLOAD,2023-12-01 22:06:32,15.08852859,0.0001488,53.2174,234.6053,95.9733,264.1429,0.00020817,3.028e-05,0.0,0 STARLINK-4497,1 53411U 22097Z   23335.92121044  .00003028  00000-0  20817-3 0  9997,2 53411  53.2174 234.6053 0001488  95.9733 264.1429 15.08852859 73535,6917.841,95.437,540.735,538.677,0.0
53411.0,STARLINK-4497,PAYLOAD,2023-12-01 23:41:55,15.0887056,0.0001612,53.2172,234.3097,98.7258,261.3917,0.00050503,7.765e-05,0.0,0 STARLINK-4497,1 53411U 22097Z   23335.98744263  .00007765  00000-0  50503-3 0  9994,2 53411  53.2172 234.3097 0001612  98.7258 261.3917 15.08870560 73057,6917.787,95.436,540.767,538.537,0.0
53411.0,STARLINK-4497,PAYLOAD,2023-12-02 21:57:20,15.0883812,0.0001796,53.2177,230.1451,79.2974,280.822,-1.7074e-05,-5.6e-06,0.0,0 STARLINK-4497,1 53411U 22097Z   23336.91481864 -.00000560  00000-0 -17074-4 0  9998,2 53411  53.2177 230.1451 0001796  79.2974 280.8220 15.08838120 73680,6917.886,95.438,540.994,538.509,0.0
53411.0,STARLINK-4497,PAYLOAD,2023-12-03 02:43:29,15.08831155,0.0001627,53.2167,229.2546,104.8397,255.2776,-0.00011279,-2.082e-05,0.0,0 STARLINK-4497,1 53411U 22097Z   23337.11354147 -.00002082  00000-0 -11279-3 0  9995,2 53411  53.2167 229.2546 0001627 104.8397 255.2776 15.08831155 73223,6917.907,95.438,540.898,538.647,0.0
53411.0,STARLINK-4497,PAYLOAD,2023-12-03 20:12:44,15.08842814,0.0001488,53.2169,225.9822,115.9533,244.1612,-0.00034032,-5.701e-05,0.0,0 STARLINK-4497,1 53411U 22097Z   23337.84217873 -.00005701  00000-0 -34032-3 0  9992,2 53411  53.2169 225.9822 0001488 115.9533 244.1612 15.08842814 73337,6917.872,95.437,540.766,538.707,0.0
53411.0,STARLINK-4497,PAYLOAD,2023-12-04 02:34:16,15.08857652,0.0001747,53.2175,224.7931,113.5749,246.5427,-0.00028954,-4.895e-05,0.0,0 STARLINK-4497,1 53411U 22097Z   23338.10713704 -.00004895  00000-0 -28954-3 0  9995,2 53411  53.2175 224.7931 0001747 113.5749 246.5427 15.08857652 73373,6917.826,95.436,540.9,538.483,0.0
53411.0,STARLINK-4497,PAYLOAD,2023-12-06 02:15:51,15.08842374,0.0001301,53.2164,215.8742,113.9959,246.117,6.351e-05,7.23e-06,0.0,0 STARLINK-4497,1 53411U 22097Z   23340.09434042  .00000723  00000-0  63510-4 0  9993,2 53411  53.2164 215.8742 0001301 113.9959 246.1170 15.08842374 73674,6917.873,95.437,540.638,538.838,0.0
53411.0,STARLINK-4497,PAYLOAD,2023-12-06 11:48:10,15.08833732,0.0001297,53.2166,214.0904,105.8726,254.2409,-1.4177e-05,-5.13e-06,0.0,0 STARLINK-4497,1 53411U 22097Z   23340.49178876 -.00000513  00000-0 -14177-4 0  9991,2 53411  53.2166 214.0904 0001297 105.8726 254.2409 15.08833732 73733,6917.9,95.438,540.662,538.867,0.0
53411.0,STARLINK-4497,PAYLOAD,2023-12-06 21:20:29,15.08837524,0.0001344,53.2164,212.3067,98.327,261.7875,5.2936e-06,-2.04e-06,0.0,0 STARLINK-4497,1 53411U 22097Z   23340.88922728 -.00000204  00000-0  52936-5 0  9999,2 53411  53.2164 212.3067 0001344  98.3270 261.7875 15.08837524 74289,6917.888,95.438,540.683,538.823,0.0
53411.0,STARLINK-4497,PAYLOAD,2023-12-07 03:42:01,15.08838901,0.0001343,53.2163,211.1169,96.2678,263.8467,4.1748e-05,3.77e-06,0.0,0 STARLINK-4497,1 53411U 22097Z   23341.15418432  .00000377  00000-0  41748-4 0  9990,2 53411  53.2163 211.1169 0001343  96.2678 263.8467 15.08838901 73836,6917.884,95.438,540.678,538.82,0.0
53411.0,STARLINK-4497,PAYLOAD,2023-12-07 14:49:43,15.0883903,0.0001357,53.2162,209.0353,95.8434,264.2713,3.4082e-05,2.55e-06,0.0,0 STARLINK-4497,1 53411U 22097Z   23341.61786447  .00000255  00000-0  34082-4 0  9993,2 53411  53.2162 209.0353 0001357  95.8434 264.2713 15.08839030 74391,6917.883,95.438,540.687,538.81,0.0
53411.0,STARLINK-4497,PAYLOAD,2023-12-08 05:08:11,15.08841485,0.0001355,53.2162,206.3591,94.7805,265.3341,4.4598e-05,4.22e-06,0.0,0 STARLINK-4497,1 53411U 22097Z   23342.21402166  .00000422  00000-0  44598-4 0  9992,2 53411  53.2162 206.3591 0001355  94.7805 265.3341 15.08841485 73994,6917.876,95.437,540.678,538.803,0.0
53411.0,STARLINK-4497,PAYLOAD,2023-12-08 14:40:30,15.08836318,0.0001354,53.2161,204.5751,94.4917,265.6229,5.2081e-05,5.41e-06,0.0,0 STARLINK-4497,1 53411U 22097Z   23342.61146491  .00000541  00000-0  52081-4 0  9990,2 53411  53.2161 204.5751 0001354  94.4917 265.6229 15.08836318 74540,6917.892,95.438,540.693,538.82,0.0
53411.0,STARLINK-4497,PAYLOAD,2023-12-08 21:02:02,15.08838266,0.0001358,53.2161,203.3857,92.6324,267.4823,8.5134e-05,1.067e-05,0.0,0 STARLINK-4497,1 53411U 22097Z   23342.87642342  .00001067  00000-0  85134-4 0  9993,2 53411  53.2161 203.3857 0001358  92.6324 267.4823 15.08838266 74588,6917.886,95.438,540.69,538.811,0.0
53411.0,STARLINK-4497,PAYLOAD,2023-12-08 22:37:26,15.08838788,0.0001355,53.2161,203.0883,92.2207,267.894,8.794e-05,1.112e-05,0.0,0 STARLINK-4497,1 53411U 22097Z   23342.94266308  .00001112  00000-0  87940-4 0  9993,2 53411  53.2161 203.0883 0001355  92.2207 267.8940 15.08838788 74591,6917.884,95.438,540.686,538.812,0.0
53411.0,STARLINK-4497,PAYLOAD,2023-12-10 00:03:35,15.08845167,0.0001369,53.2161,198.3303,91.335,268.7799,4.3183e-05,3.99e-06,0.0,0 STARLINK-4497,1 53411U 22097Z   23344.00249770  .00000399  00000-0  43183-4 0  9993,2 53411  53.2161 198.3303 0001369  91.3350 268.7799 15.08845167 74263,6917.865,95.437,540.677,538.783,0.0
